start=new Date('2023-06-12T00:00:00.000Z').valueOf();
sats=[{"TIME_SYSTEM":"UTC","SITE":"AFETR","REV_AT_EPOCH":"4041","APOAPSIS":"540.545","ELEMENT_SET_NO":"999","TLE_LINE1":"1 53904U 22119U   23162.63253370 -.00000388  00000-0 -63095-5 0  9998","COUNTRY_CODE":"US","SEMIMAJOR_AXIS":"6917.895","CLASSIFICATION_TYPE":"U","INCLINATION":"53.2155","DECAY_DATE":null,"LAUNCH_DATE":"2022-09-24","NORAD_CAT_ID":"53904","OBJECT_ID":"2022-119U","CENTER_NAME":"EARTH","MEAN_MOTION_DDOT":"0.0000000000000","MEAN_MOTION_DOT":"-0.00000388","ECCENTRICITY":"0.00011350","RA_OF_ASC_NODE":"142.1298","MEAN_ANOMALY":"270.7834","PERIAPSIS":"538.975","OBJECT_TYPE":"PAYLOAD","FILE":"3930737","MEAN_ELEMENT_THEORY":"SGP4","REF_FRAME":"TEME","EPOCH":"2023-06-11T15:10:50.911680","EPHEMERIS_TYPE":"0","GP_ID":"233726982","TLE_LINE2":"2 53904  53.2155 142.1298 0001135  89.3288 270.7834 15.08835305 40417","OBJECT_NAME":"STARLINK-4787","RCS_SIZE":"LARGE","MEAN_MOTION":"15.08835305","PERIOD":"95.438","ARG_OF_PERICENTER":"89.3288","BSTAR":"-0.00000630950000"},{"ARG_OF_PERICENTER":"94.8513","BSTAR":"0.00007962200000","PERIOD":"95.438","MEAN_MOTION":"15.08836470","RCS_SIZE":"LARGE","GP_ID":"233726732","OBJECT_NAME":"STARLINK-5003","TLE_LINE2":"2 53905  53.2173 131.6065 0001118  94.8513 265.2607 15.08836470 40585","EPOCH":"2023-06-11T21:17:55.622976","EPHEMERIS_TYPE":"0","OBJECT_TYPE":"PAYLOAD","MEAN_ELEMENT_THEORY":"SGP4","FILE":"3930737","REF_FRAME":"TEME","RA_OF_ASC_NODE":"131.6065","MEAN_ANOMALY":"265.2607","PERIAPSIS":"538.983","MEAN_MOTION_DOT":"0.00000979","ECCENTRICITY":"0.00011180","OBJECT_ID":"2022-119V","CENTER_NAME":"EARTH","MEAN_MOTION_DDOT":"0.0000000000000","LAUNCH_DATE":"2022-09-24","NORAD_CAT_ID":"53905","CLASSIFICATION_TYPE":"U","SEMIMAJOR_AXIS":"6917.891","INCLINATION":"53.2173","DECAY_DATE":null,"APOAPSIS":"540.530","TLE_LINE1":"1 53905U 22119V   23162.88744934  .00000979  00000-0  79622-4 0  9993","ELEMENT_SET_NO":"999","COUNTRY_CODE":"US","SITE":"AFETR","REV_AT_EPOCH":"4058","TIME_SYSTEM":"UTC"},{"MEAN_MOTION":"15.08834814","PERIOD":"95.438","BSTAR":"0.00004943000000","ARG_OF_PERICENTER":"86.3475","FILE":"3930737","MEAN_ELEMENT_THEORY":"SGP4","OBJECT_TYPE":"PAYLOAD","REF_FRAME":"TEME","EPOCH":"2023-06-11T21:39:01.970496","EPHEMERIS_TYPE":"0","GP_ID":"233727480","TLE_LINE2":"2 53906  53.2168 130.9997 0001136  86.3475 273.7647 15.08834814 40598","OBJECT_NAME":"STARLINK-5054","RCS_SIZE":"LARGE","LAUNCH_DATE":"2022-09-24","NORAD_CAT_ID":"53906","CENTER_NAME":"EARTH","OBJECT_ID":"2022-119W","MEAN_MOTION_DDOT":"0.0000000000000","MEAN_MOTION_DOT":"0.00000499","ECCENTRICITY":"0.00011360","MEAN_ANOMALY":"273.7647","RA_OF_ASC_NODE":"130.9997","PERIAPSIS":"538.975","TIME_SYSTEM":"UTC","REV_AT_EPOCH":"4059","SITE":"AFETR","APOAPSIS":"540.547","COUNTRY_CODE":"US","ELEMENT_SET_NO":"999","TLE_LINE1":"1 53906U 22119W   23162.90210614  .00000499  00000-0  49430-4 0  9991","INCLINATION":"53.2168","CLASSIFICATION_TYPE":"U","SEMIMAJOR_AXIS":"6917.896","DECAY_DATE":null},{"MEAN_ANOMALY":"269.8205","RA_OF_ASC_NODE":"142.9985","PERIAPSIS":"538.827","MEAN_MOTION_DOT":"-0.00000644","ECCENTRICITY":"0.00013250","CENTER_NAME":"EARTH","OBJECT_ID":"2022-119X","MEAN_MOTION_DDOT":"0.0000000000000","LAUNCH_DATE":"2022-09-24","NORAD_CAT_ID":"53907","INCLINATION":"53.2153","CLASSIFICATION_TYPE":"U","SEMIMAJOR_AXIS":"6917.879","DECAY_DATE":null,"APOAPSIS":"540.661","COUNTRY_CODE":"US","TLE_LINE1":"1 53907U 22119X   23162.43012486 -.00000644  00000-0 -22361-4 0  9995","ELEMENT_SET_NO":"999","REV_AT_EPOCH":"4038","SITE":"AFETR","TIME_SYSTEM":"UTC","BSTAR":"-0.00002236100000","ARG_OF_PERICENTER":"90.2939","PERIOD":"95.438","MEAN_MOTION":"15.08840461","RCS_SIZE":"LARGE","GP_ID":"233695826","TLE_LINE2":"2 53907  53.2153 142.9985 0001325  90.2939 269.8205 15.08840461 40380","OBJECT_NAME":"STARLINK-5063","EPOCH":"2023-06-11T10:19:22.787904","EPHEMERIS_TYPE":"0","FILE":"3930529","MEAN_ELEMENT_THEORY":"SGP4","OBJECT_TYPE":"PAYLOAD","REF_FRAME":"TEME"},{"TIME_SYSTEM":"UTC","SITE":"AFETR","REV_AT_EPOCH":"4054","TLE_LINE1":"1 53908U 22119Y   23162.61511738  .00000463  00000-0  47150-4 0  9990","ELEMENT_SET_NO":"999","COUNTRY_CODE":"US","APOAPSIS":"540.499","DECAY_DATE":null,"CLASSIFICATION_TYPE":"U","SEMIMAJOR_AXIS":"6917.891","INCLINATION":"53.2159","NORAD_CAT_ID":"53908","LAUNCH_DATE":"2022-09-24","MEAN_MOTION_DDOT":"0.0000000000000","OBJECT_ID":"2022-119Y","CENTER_NAME":"EARTH","ECCENTRICITY":"0.00010750","MEAN_MOTION_DOT":"0.00000463","PERIAPSIS":"539.012","RA_OF_ASC_NODE":"132.7477","MEAN_ANOMALY":"274.4011","REF_FRAME":"TEME","OBJECT_TYPE":"PAYLOAD","MEAN_ELEMENT_THEORY":"SGP4","FILE":"3930737","EPHEMERIS_TYPE":"0","EPOCH":"2023-06-11T14:45:46.141632","OBJECT_NAME":"STARLINK-5057","TLE_LINE2":"2 53908  53.2159 132.7477 0001075  85.7104 274.4011 15.08836618 40549","GP_ID":"233726482","RCS_SIZE":"LARGE","MEAN_MOTION":"15.08836618","PERIOD":"95.438","ARG_OF_PERICENTER":"85.7104","BSTAR":"0.00004715000000"},{"PERIAPSIS":"538.973","MEAN_ANOMALY":"272.7538","RA_OF_ASC_NODE":"132.5224","ECCENTRICITY":"0.00011270","MEAN_MOTION_DOT":"0.00000436","MEAN_MOTION_DDOT":"0.0000000000000","CENTER_NAME":"EARTH","OBJECT_ID":"2022-119Z","NORAD_CAT_ID":"53909","LAUNCH_DATE":"2022-09-24","DECAY_DATE":null,"INCLINATION":"53.2165","CLASSIFICATION_TYPE":"U","SEMIMAJOR_AXIS":"6917.888","COUNTRY_CODE":"US","TLE_LINE1":"1 53909U 22119Z   23162.69241391  .00000436  00000-0  45479-4 0  9996","ELEMENT_SET_NO":"999","APOAPSIS":"540.533","REV_AT_EPOCH":"4055","SITE":"AFETR","TIME_SYSTEM":"UTC","BSTAR":"0.00004547900000","ARG_OF_PERICENTER":"87.3583","PERIOD":"95.438","MEAN_MOTION":"15.08837473","RCS_SIZE":"LARGE","OBJECT_NAME":"STARLINK-4796","TLE_LINE2":"2 53909  53.2165 132.5224 0001127  87.3583 272.7538 15.08837473 40558","GP_ID":"233727233","EPHEMERIS_TYPE":"0","EPOCH":"2023-06-11T16:37:04.561824","REF_FRAME":"TEME","FILE":"3930737","MEAN_ELEMENT_THEORY":"SGP4","OBJECT_TYPE":"PAYLOAD"},{"MEAN_MOTION_DOT":"-0.00000289","ECCENTRICITY":"0.00011780","MEAN_ANOMALY":"272.8500","RA_OF_ASC_NODE":"132.7033","PERIAPSIS":"538.943","LAUNCH_DATE":"2022-09-24","NORAD_CAT_ID":"53910","CENTER_NAME":"EARTH","OBJECT_ID":"2022-119AA","MEAN_MOTION_DDOT":"0.0000000000000","APOAPSIS":"540.573","COUNTRY_CODE":"US","ELEMENT_SET_NO":"999","TLE_LINE1":"1 53910U 22119AA  23162.60775007 -.00000289  00000-0 -10497-6 0  9997","INCLINATION":"53.2152","SEMIMAJOR_AXIS":"6917.893","CLASSIFICATION_TYPE":"U","DECAY_DATE":null,"TIME_SYSTEM":"UTC","REV_AT_EPOCH":"4054","SITE":"AFETR","BSTAR":"-0.00000010497000","ARG_OF_PERICENTER":"87.2627","MEAN_MOTION":"15.08835787","PERIOD":"95.438","GP_ID":"233727981","TLE_LINE2":"2 53910  53.2152 132.7033 0001178  87.2627 272.8500 15.08835787 40545","OBJECT_NAME":"STARLINK-5056","RCS_SIZE":"LARGE","MEAN_ELEMENT_THEORY":"SGP4","FILE":"3930737","OBJECT_TYPE":"PAYLOAD","REF_FRAME":"TEME","EPOCH":"2023-06-11T14:35:09.606048","EPHEMERIS_TYPE":"0"},{"TIME_SYSTEM":"UTC","SITE":"AFETR","REV_AT_EPOCH":"4059","APOAPSIS":"540.455","ELEMENT_SET_NO":"999","TLE_LINE1":"1 53911U 22119AB  23162.95000402  .00000462  00000-0  47136-4 0  9995","COUNTRY_CODE":"US","SEMIMAJOR_AXIS":"6917.890","CLASSIFICATION_TYPE":"U","INCLINATION":"53.2161","DECAY_DATE":null,"LAUNCH_DATE":"2022-09-24","NORAD_CAT_ID":"53911","OBJECT_ID":"2022-119AB","CENTER_NAME":"EARTH","MEAN_MOTION_DDOT":"0.0000000000000","MEAN_MOTION_DOT":"0.00000462","ECCENTRICITY":"0.00010110","RA_OF_ASC_NODE":"131.2846","MEAN_ANOMALY":"271.5003","PERIAPSIS":"539.056","OBJECT_TYPE":"PAYLOAD","FILE":"3930737","MEAN_ELEMENT_THEORY":"SGP4","REF_FRAME":"TEME","EPOCH":"2023-06-11T22:48:00.347328","EPHEMERIS_TYPE":"0","GP_ID":"233727730","OBJECT_NAME":"STARLINK-5048","TLE_LINE2":"2 53911  53.2161 131.2846 0001011  88.6105 271.5003 15.08836705 40594","RCS_SIZE":"LARGE","MEAN_MOTION":"15.08836705","PERIOD":"95.438","ARG_OF_PERICENTER":"88.6105","BSTAR":"0.00004713600000"},{"MEAN_MOTION":"15.08836388","PERIOD":"95.438","ARG_OF_PERICENTER":"84.1262","BSTAR":"0.00002958000000","REF_FRAME":"TEME","OBJECT_TYPE":"PAYLOAD","FILE":"3930737","MEAN_ELEMENT_THEORY":"SGP4","EPHEMERIS_TYPE":"0","EPOCH":"2023-06-11T15:12:11.051136","TLE_LINE2":"2 53912  53.2160 132.1663 0001183  84.1262 275.9865 15.08836388 40553","OBJECT_NAME":"STARLINK-5059","GP_ID":"233726983","RCS_SIZE":"LARGE","NORAD_CAT_ID":"53912","LAUNCH_DATE":"2022-09-24","MEAN_MOTION_DDOT":"0.0000000000000","OBJECT_ID":"2022-119AC","CENTER_NAME":"EARTH","ECCENTRICITY":"0.00011830","MEAN_MOTION_DOT":"0.00000183","PERIAPSIS":"538.938","RA_OF_ASC_NODE":"132.1663","MEAN_ANOMALY":"275.9865","TIME_SYSTEM":"UTC","SITE":"AFETR","REV_AT_EPOCH":"4055","ELEMENT_SET_NO":"999","TLE_LINE1":"1 53912U 22119AC  23162.63346124  .00000183  00000-0  29580-4 0  9998","COUNTRY_CODE":"US","APOAPSIS":"540.575","DECAY_DATE":null,"CLASSIFICATION_TYPE":"U","SEMIMAJOR_AXIS":"6917.891","INCLINATION":"53.2160"},{"SITE":"AFETR","REV_AT_EPOCH":"4059","TIME_SYSTEM":"UTC","DECAY_DATE":null,"SEMIMAJOR_AXIS":"6917.882","CLASSIFICATION_TYPE":"U","INCLINATION":"53.2155","ELEMENT_SET_NO":"999","TLE_LINE1":"1 53913U 22119AD  23162.93157910  .00000342  00000-0  39603-4 0  9999","COUNTRY_CODE":"US","APOAPSIS":"540.604","MEAN_MOTION_DDOT":"0.0000000000000","OBJECT_ID":"2022-119AD","CENTER_NAME":"EARTH","NORAD_CAT_ID":"53913","LAUNCH_DATE":"2022-09-24","PERIAPSIS":"538.890","RA_OF_ASC_NODE":"131.1700","MEAN_ANOMALY":"277.8970","ECCENTRICITY":"0.00012390","MEAN_MOTION_DOT":"0.00000342","EPHEMERIS_TYPE":"0","EPOCH":"2023-06-11T22:21:28.434240","REF_FRAME":"TEME","OBJECT_TYPE":"PAYLOAD","FILE":"3930737","MEAN_ELEMENT_THEORY":"SGP4","RCS_SIZE":"LARGE","OBJECT_NAME":"STARLINK-5053","TLE_LINE2":"2 53913  53.2155 131.1700 0001239  82.2163 277.8970 15.08839481 40599","GP_ID":"233726733","PERIOD":"95.438","MEAN_MOTION":"15.08839481","ARG_OF_PERICENTER":"82.2163","BSTAR":"0.00003960300000"}];
